O3B FM5                 
1 39188U 13031A   18060.96253892 -.00000031  00000-0  00000-0 0  9991
2 39188   0.0484 347.7955 0007603 312.0167  60.1053  5.00110015 85587
O3B FM4                 
1 39189U 13031B   18059.65518503 -.00000030  00000-0  00000+0 0  9997
2 39189   0.0341  22.2556 0003157  57.6004 280.1729  5.00115860 85503
O3B FM2                 
1 39190U 13031C   18060.22996278 -.00000030  00000-0  00000-0 0  9994
2 39190   0.0303  27.8374 0004007  58.4605 273.7410  5.00112085 85537
O3B PFM                 
1 39191U 13031D   18063.25143228 -.00000032  00000-0  00000+0 0  9991
2 39191   0.0431 356.4756 0001050 308.8206  54.6874  5.00116255 85688
O3B FM3                 
1 40079U 14038A   18062.16400829 -.00000032  00000-0  00000+0 0  9998
2 40079   0.0361   8.0811 0004298 306.8562  45.0211  5.00115548 66625
O3B FM7                 
1 40080U 14038B   18061.71899248 -.00000032  00000-0  00000-0 0  9998
2 40080   0.0365  11.5147 0003001 320.6418  27.8206  5.00115428 66491
O3B FM6                 
1 40081U 14038C   18055.54550158 -.00000021  00000-0  00000-0 0  9995
2 40081   0.0360   8.7590 0003363 312.1899  39.0221  5.00115844 66165
O3B FM8                 
1 40082U 14038D   18062.38603961 -.00000032  00000-0  00000-0 0  9999
2 40082   0.0360  14.7765 0001752 302.5714  42.6318  5.00115982 66605
O3B FM10                
1 40348U 14083A   18059.60969192 -.00000030  00000-0  00000-0 0  9994
2 40348   0.0389 359.4175 0003445 351.6473   8.9223  5.00115925 58443
O3B FM11                
1 40349U 14083B   18061.63051356 -.00000032  00000-0  00000-0 0  9997
2 40349   0.0411 358.3333 0002894 357.3224   4.3349  5.00115712 58542
O3B FM12                
1 40350U 14083C   18062.29723505 -.00000032  00000-0  00000-0 0  9994
2 40350   0.0408 359.7067 0002482 347.3786  12.9016  5.00115561 58586
O3B FM9                 
1 40351U 14083D   18055.47846439 -.00000021  00000-0  00000-0 0  9997
2 40351   0.0410 356.3816 0003113 346.0869  17.5162  5.00115398 58250
DIAMOND RED             
1 42783U 17036U   18062.64124950  .00000882  00000-0  42557-4 0  9994
2 42783  97.4150 124.0467 0014210  87.4346 272.8516 15.21220167 38465
DIAMOND GREEN           
1 42785U 17036W   18063.10081309  .00000874  00000-0  42172-4 0  9992
2 42785  97.4152 124.5089 0014095  86.5580 273.7268 15.21224484 38522
DIAMOND BLUE            
1 42786U 17036X   18062.63945633  .00000883  00000-0  42599-4 0  9992
2 42786  97.4152 124.0553 0013944  88.2396 272.0436 15.21219611 38457
